*******************************************************************************
JPL/HORIZONS               4140 Branham (1976 VA)          2023-Sep-04 11:27:31
Rec #:    4140 (+COV) Soln.date: 2023-Aug-23_16:22:35   # obs: 4672 (1976-2023)
 
IAU76/J2000 helio. ecliptic osc. elements (au, days, deg., period=Julian yrs):
 
  EPOCH=  2457480.5 ! 2016-Apr-02.00 (TDB)         Residual RMS= .26722
   EC= .1189288754407814   QR= 2.649483140431709   TP= 2458182.7134817159
   OM= 127.1640972727501   W=  219.6301113705726   IN= 7.722245102063921
   A= 3.007116073355814    MA= 227.2764623192155   ADIST= 3.364749006279919
   PER= 5.21475            N= .18900739            ANGMOM= .029618514
   DAN= 3.26351            DDN= 2.71582            L= 346.5380112
   B= -4.9166038           MOID= 1.64594996        TP= 2018-Mar-05.2134817159
 
Asteroid physical parameters (km, seconds, rotational period in hours):
   GM= n.a.                RAD= 16.874             ROTPER= 7.2037
   H= 11.53                G= .150                 B-V= n.a.
                           ALBEDO= .053            STYP= n.a.

ASTEROID comments: 
1: soln ref.= JPL#58, OCC=0
2: source=ORB
*******************************************************************************


*******************************************************************************
Ephemeris / API_USER Mon Sep  4 11:27:31 2023 Pasadena, USA      / Horizons
*******************************************************************************
Target body name: 4140 Branham (1976 VA)          {source: JPL#58}
Center body name: Solar System Barycenter (0)     {source: DE441}
Center-site name: BODY CENTER
*******************************************************************************
Start time      : A.D. 2023-Aug-12 00:00:00.0000 TDB
Stop  time      : A.D. 2023-Aug-13 00:00:00.0000 TDB
Step-size       : 2880 minutes
*******************************************************************************
Center geodetic : 0.0, 0.0, 0.0                   {E-lon(deg),Lat(deg),Alt(km)}
Center cylindric: 0.0, 0.0, 0.0                   {E-lon(deg),Dxy(km),Dz(km)}
Center radii    : (undefined)
Small perturbers: Yes                             {source: SB441-N16}
Output units    : KM-S
Calendar mode   : Mixed Julian/Gregorian
Output type     : GEOMETRIC cartesian states
Output format   : 2 (position and velocity)
Reference frame : Ecliptic of J2000.0
*******************************************************************************
Initial IAU76/J2000 heliocentric ecliptic osculating elements (au, days, deg.):
  EPOCH=  2457480.5 ! 2016-Apr-02.00 (TDB)         Residual RMS= .26722        
   EC= .1189288754407814   QR= 2.649483140431709   TP= 2458182.7134817159      
   OM= 127.1640972727501   W=  219.6301113705726   IN= 7.722245102063921       
  Equivalent ICRF heliocentric cartesian coordinates (au, au/d):
   X=-2.940236939098495E+00  Y=-1.423549126572593E+00  Z=-1.489790377018351E-01
  VX= 4.504887270177081E-03 VY=-7.302620693528569E-03 VZ=-2.992188816894536E-03
Asteroid physical parameters (km, seconds, rotational period in hours):        
   GM= n.a.                RAD= 16.874             ROTPER= 7.2037              
   H= 11.53                G= .150                 B-V= n.a.                   
                           ALBEDO= .053            STYP= n.a.                  
*******************************************************************************
JDTDB
   X     Y     Z
   VX    VY    VZ
*******************************************************************************
$$SOE
2460168.500000000 = A.D. 2023-Aug-12 00:00:00.0000 TDB 
 X = 3.910449640386596E+08 Y = 4.433651553273704E+07 Z =-4.603633343633999E+07
 VX=-1.628109807801519E+00 VY= 1.916932601031201E+01 VZ=-1.392865977065942E+00
$$EOE
*******************************************************************************
 
TIME

  Barycentric Dynamical Time ("TDB" or T_eph) output was requested. This
continuous coordinate time is equivalent to the relativistic proper time
of a clock at rest in a reference frame co-moving with the solar system
barycenter but outside the system's gravity well. It is the independent
variable in the solar system relativistic equations of motion.

  TDB runs at a uniform rate of one SI second per second and is independent
of irregularities in Earth's rotation.
 
CALENDAR SYSTEM

  Mixed calendar mode was active such that calendar dates after AD 1582-Oct-15
(if any) are in the modern Gregorian system. Dates prior to 1582-Oct-5 (if any)
are in the Julian calendar system, which is automatically extended for dates
prior to its adoption on 45-Jan-1 BC.  The Julian calendar is useful for
matching historical dates. The Gregorian calendar more accurately corresponds
to the Earth's orbital motion and seasons. A "Gregorian-only" calendar mode is
available if such physical events are the primary interest.

REFERENCE FRAME AND COORDINATES

  Ecliptic at the standard reference epoch

    Reference epoch: J2000.0
    X-Y plane: adopted Earth orbital plane at the reference epoch
               Note: IAU76 obliquity of 84381.448 arcseconds wrt ICRF X-Y plane
    X-axis   : ICRF
    Z-axis   : perpendicular to the X-Y plane in the directional (+ or -) sense
               of Earth's north pole at the reference epoch.

  Symbol meaning:

    JDTDB    Julian Day Number, Barycentric Dynamical Time
      X      X-component of position vector (km)
      Y      Y-component of position vector (km)
      Z      Z-component of position vector (km)
      VX     X-component of velocity vector (km/sec)                           
      VY     Y-component of velocity vector (km/sec)                           
      VZ     Z-component of velocity vector (km/sec)                           

ABERRATIONS AND CORRECTIONS

 Geometric state vectors have NO corrections or aberrations applied.

Computations by ...

    Solar System Dynamics Group, Horizons On-Line Ephemeris System
    4800 Oak Grove Drive, Jet Propulsion Laboratory
    Pasadena, CA  91109   USA

    General site: https://ssd.jpl.nasa.gov/
    Mailing list: https://ssd.jpl.nasa.gov/email_list.html
    System news : https://ssd.jpl.nasa.gov/horizons/news.html
    User Guide  : https://ssd.jpl.nasa.gov/horizons/manual.html
    Connect     : browser        https://ssd.jpl.nasa.gov/horizons/app.html#/x
                  API            https://ssd-api.jpl.nasa.gov/doc/horizons.html
                  command-line   telnet ssd.jpl.nasa.gov 6775
                  e-mail/batch   https://ssd.jpl.nasa.gov/ftp/ssd/hrzn_batch.txt
                  scripts        https://ssd.jpl.nasa.gov/ftp/ssd/SCRIPTS
    Author      : Jon.D.Giorgini@jpl.nasa.gov
*******************************************************************************
